NORAD_CAT_ID,OBJECT_NAME,OBJECT_TYPE,EPOCH,MEAN_MOTION,ECCENTRICITY,INCLINATION,RA_OF_ASC_NODE,ARG_OF_PERICENTER,MEAN_ANOMALY,BSTAR,MEAN_MOTION_DOT,MEAN_MOTION_DDOT,TLE_LINE0,TLE_LINE1,TLE_LINE2,SEMIMAJOR_AXIS,PERIOD,APOGEE,PERIGEE,DECAYED
52310.0,STARLINK-3688,PAYLOAD,2024-07-24 01:19:58,15.08834445,0.0001442,53.216,234.1142,91.8546,268.2612,3.2365e-05,2.27e-06,0.0,0 STARLINK-3688,1 52310U 22041BB  24206.05553715  .00000227  00000-0  32365-4 0  9999,2 52310  53.2160 234.1142 0001442  91.8546 268.2612 15.08834445126245,6917.897,95.438,540.76,538.765,0.0
52310.0,STARLINK-3688,PAYLOAD,2024-07-24 10:52:17,15.08830061,0.0001393,53.2157,232.3284,87.8181,272.297,-8.5333e-06,-4.24e-06,0.0,0 STARLINK-3688,1 52310U 22041BB  24206.45298343 -.00000424  00000-0 -85333-5 0  9991,2 52310  53.2157 232.3284 0001393  87.8181 272.2970 15.08830061126302,6917.911,95.438,540.739,538.812,0.0
52310.0,STARLINK-3688,PAYLOAD,2024-07-25 05:56:55,15.08832265,0.0001532,53.2153,228.7604,106.6015,253.5146,7.5148e-05,9.08e-06,0.0,0 STARLINK-3688,1 52310U 22041BB  24207.24786189  .00000908  00000-0  75148-4 0  9996,2 52310  53.2153 228.7604 0001532 106.6015 253.5146 15.08832265126422,6917.904,95.438,540.829,538.709,0.0
52310.0,STARLINK-3688,PAYLOAD,2024-07-25 09:07:41,15.08837411,0.0001372,53.2155,228.1666,87.8823,272.2326,3.4857e-05,2.67e-06,0.0,0 STARLINK-3688,1 52310U 22041BB  24207.38034111  .00000267  00000-0  34857-4 0  9992,2 52310  53.2155 228.1666 0001372  87.8823 272.2326 15.08837411126443,6917.888,95.438,540.702,538.804,0.0
52310.0,STARLINK-3688,PAYLOAD,2024-07-26 07:23:05,15.08840278,0.0001403,53.2153,224.0024,84.6753,275.4399,0.00017495,2.498e-05,0.0,0 STARLINK-3688,1 52310U 22041BB  24208.30769684  .00002498  00000-0  17495-3 0  9991,2 52310  53.2153 224.0024 0001403  84.6753 275.4399 15.08840278126581,6917.88,95.438,540.715,538.774,0.0
52310.0,STARLINK-3688,PAYLOAD,2024-07-26 18:30:46,15.08844353,0.0001441,53.2153,221.9215,82.5289,277.5867,0.00015717,2.215e-05,0.0,0 STARLINK-3688,1 52310U 22041BB  24208.77137468  .00002215  00000-0  15717-3 0  9993,2 52310  53.2153 221.9215 0001441  82.5289 277.5867 15.08844353126651,6917.867,95.437,540.729,538.735,0.0
52310.0,STARLINK-3688,PAYLOAD,2024-07-27 05:38:28,15.08847351,0.0001478,53.2157,219.8397,83.1527,276.9633,0.00010981,1.46e-05,0.0,0 STARLINK-3688,1 52310U 22041BB  24209.23505309  .00001460  00000-0  10981-3 0  9997,2 52310  53.2157 219.8397 0001478  83.1527 276.9633 15.08847351126727,6917.858,95.437,540.745,538.7,0.0
52310.0,STARLINK-3688,PAYLOAD,2024-07-27 10:24:37,15.08849489,0.0001477,53.2155,218.9473,84.1879,275.9282,0.0001231,1.672e-05,0.0,0 STARLINK-3688,1 52310U 22041BB  24209.43377047  .00001672  00000-0  12310-3 0  9998,2 52310  53.2155 218.9473 0001477  84.1879 275.9282 15.08849489126756,6917.851,95.437,540.738,538.695,0.0
52310.0,STARLINK-3688,PAYLOAD,2024-07-28 05:29:16,15.0883951,0.0001529,53.2155,215.3775,88.4164,271.7003,-3.4407e-05,-8.36e-06,0.0,0 STARLINK-3688,1 52310U 22041BB  24210.22865914 -.00000836  00000-0 -34407-4 0  9997,2 52310  53.2155 215.3775 0001529  88.4164 271.7003 15.08839510126876,6917.882,95.438,540.805,538.689,0.0
52310.0,STARLINK-3688,PAYLOAD,2024-07-28 10:15:25,15.08839675,0.0001493,53.2156,214.4854,91.4701,268.6462,-5.2098e-05,-1.117e-05,0.0,0 STARLINK-3688,1 52310U 22041BB  24210.42737881 -.00001117  00000-0 -52098-4 0  9999,2 52310  53.2156 214.4854 0001493  91.4701 268.6462 15.08839675126906,6917.881,95.438,540.779,538.714,0.0
52310.0,STARLINK-3688,PAYLOAD,2024-07-29 10:06:12,15.08839929,0.0001547,53.2161,210.0248,92.9246,267.1923,-2.3398e-05,-6.6e-06,0.0,0 STARLINK-3688,1 52310U 22041BB  24211.42097711 -.00000660  00000-0 -23398-4 0  9994,2 52310  53.2161 210.0248 0001547  92.9246 267.1923 15.08839929127056,6917.881,95.438,540.816,538.675,0.0
52310.0,STARLINK-3688,PAYLOAD,2024-07-29 16:27:44,15.08840933,0.0001531,53.216,208.8356,92.4858,267.631,-4.9428e-06,-3.67e-06,0.0,0 STARLINK-3688,1 52310U 22041BB  24211.68593596 -.00000367  00000-0 -49428-5 0  9991,2 52310  53.2160 208.8356 0001531  92.4858 267.6310 15.08840933127093,6917.878,95.437,540.802,538.683,0.0
52310.0,STARLINK-3688,PAYLOAD,2024-07-30 09:56:59,15.08838609,0.0001402,53.2155,205.5659,88.2806,271.8347,7.288e-05,8.72e-06,0.0,0 STARLINK-3688,1 52310U 22041BB  24212.41457670  .00000872  00000-0  72880-4 0  9991,2 52310  53.2155 205.5659 0001402  88.2806 271.8347 15.08838609127207,6917.885,95.438,540.72,538.78,0.0
52310.0,STARLINK-3688,PAYLOAD,2024-07-30 16:18:32,15.08838255,0.0001391,53.2155,204.3763,87.5167,272.5984,7.1758e-05,8.54e-06,0.0,0 STARLINK-3688,1 52310U 22041BB  24212.67953744  .00000854  00000-0  71758-4 0  9995,2 52310  53.2155 204.3763 0001391  87.5167 272.5984 15.08838255127245,6917.886,95.438,540.713,538.788,0.0
52310.0,STARLINK-3688,PAYLOAD,2024-07-31 06:37:00,15.08843611,0.0001373,53.2155,201.7002,90.7739,269.341,7.5787e-05,9.19e-06,0.0,0 STARLINK-3688,1 52310U 22041BB  24213.27569446  .00000919  00000-0  75787-4 0  9992,2 52310  53.2155 201.7002 0001373  90.7739 269.3410 15.08843611127333,6917.869,95.437,540.684,538.785,0.0
52310.0,STARLINK-3688,PAYLOAD,2024-07-31 16:09:19,15.08839646,0.000135,53.2154,199.9161,88.6396,271.475,4.6583e-05,4.54e-06,0.0,0 STARLINK-3688,1 52310U 22041BB  24213.67313735  .00000454  00000-0  46583-4 0  9990,2 52310  53.2154 199.9161 0001350  88.6396 271.4750 15.08839646127396,6917.881,95.438,540.68,538.813,0.0
52310.0,STARLINK-3688,PAYLOAD,2024-08-01 04:52:24,15.0883288,0.000143,53.2164,197.5375,87.7742,272.3414,-3.2026e-05,-7.97e-06,0.0,0 STARLINK-3688,1 52310U 22041BB  24214.20306632 -.00000797  00000-0 -32026-4 0  9997,2 52310  53.2164 197.5375 0001430  87.7742 272.3414 15.08832880127471,6917.902,95.438,540.756,538.778,0.0
52310.0,STARLINK-3688,PAYLOAD,2024-08-01 06:27:47,15.08834663,0.0001438,53.2162,197.2401,87.2602,272.8555,-1.633e-05,-5.48e-06,0.0,0 STARLINK-3688,1 52310U 22041BB  24214.26930489 -.00000548  00000-0 -16330-4 0  9990,2 52310  53.2162 197.2401 0001438  87.2602 272.8555 15.08834663127487,6917.897,95.438,540.756,538.767,0.0
52310.0,STARLINK-3688,PAYLOAD,2024-08-01 16:00:06,15.08839165,0.0001457,53.2165,195.4561,89.0077,271.1082,3.0024e-05,1.9e-06,0.0,0 STARLINK-3688,1 52310U 22041BB  24214.66674129  .00000190  00000-0  30024-4 0  9997,2 52310  53.2165 195.4561 0001457  89.0077 271.1082 15.08839165127540,6917.883,95.438,540.756,538.74,0.0
52310.0,STARLINK-3688,PAYLOAD,2024-08-01 22:21:38,15.08840327,0.0001468,53.2165,194.2666,88.7548,271.3612,5.4878e-05,5.86e-06,0.0,0 STARLINK-3688,1 52310U 22041BB  24214.93169974  .00000586  00000-0  54878-4 0  9996,2 52310  53.2165 194.2666 0001468  88.7548 271.3612 15.08840327127581,6917.879,95.438,540.76,538.729,0.0
52310.0,STARLINK-3688,PAYLOAD,2024-08-02 07:53:57,15.08848317,0.000143,53.2163,192.4831,89.6911,270.4245,8.141e-05,1.008e-05,0.0,0 STARLINK-3688,1 52310U 22041BB  24215.32913333  .00001008  00000-0  81410-4 0  9998,2 52310  53.2163 192.4831 0001430  89.6911 270.4245 15.08848317127642,6917.855,95.437,540.709,538.731,0.0
52310.0,STARLINK-3688,PAYLOAD,2024-08-02 15:50:53,15.08835763,0.0001362,53.215,190.9938,86.7927,273.3221,-1.2452e-05,-4.86e-06,0.0,0 STARLINK-3688,1 52310U 22041BB  24215.66034376 -.00000486  00000-0 -12452-4 0  9997,2 52310  53.2150 190.9938 0001362  86.7927 273.3221 15.08835763127690,6917.893,95.438,540.701,538.816,0.0
52310.0,STARLINK-3688,PAYLOAD,2024-08-02 22:12:26,15.08829936,0.0001608,53.2161,189.8055,85.0276,275.09,5.3879e-05,5.69e-06,0.0,0 STARLINK-3688,1 52310U 22041BB  24215.92530764  .00000569  00000-0  53879-4 0  9996,2 52310  53.2161 189.8055 0001608  85.0276 275.0900 15.08829936127734,6917.911,95.438,540.889,538.664,0.0
52310.0,STARLINK-3688,PAYLOAD,2024-08-03 07:44:45,15.0883633,0.0001411,53.2162,188.0199,92.4631,267.6522,4.044e-05,3.56e-06,0.0,0 STARLINK-3688,1 52310U 22041BB  24216.32274550  .00000356  00000-0  40440-4 0  9993,2 52310  53.2162 188.0199 0001411  92.4631 267.6522 15.08836330127793,6917.892,95.438,540.733,538.78,0.0
52310.0,STARLINK-3688,PAYLOAD,2024-08-03 15:41:40,15.08838596,0.0001424,53.2167,186.5338,91.6448,268.4708,5.0046e-05,5.09e-06,0.0,0 STARLINK-3688,1 52310U 22041BB  24216.65394457  .00000509  00000-0  50046-4 0  9991,2 52310  53.2167 186.5338 0001424  91.6448 268.4708 15.08838596127844,6917.885,95.438,540.735,538.765,0.0
52310.0,STARLINK-3688,PAYLOAD,2024-08-04 04:24:45,15.08850425,0.0001381,53.2162,184.1537,96.3092,263.8058,5.3171e-05,5.59e-06,0.0,0 STARLINK-3688,1 52310U 22041BB  24217.18385649  .00000559  00000-0  53171-4 0  9990,2 52310  53.2162 184.1537 0001381  96.3092 263.8058 15.08850425127924,6917.849,95.437,540.669,538.758,0.0
52310.0,STARLINK-3688,PAYLOAD,2024-08-04 21:54:00,15.08836399,0.0001425,53.2155,180.8838,93.9435,266.172,9.444e-05,1.215e-05,0.0,0 STARLINK-3688,1 52310U 22041BB  24217.91250458  .00001215  00000-0  94440-4 0  9994,2 52310  53.2155 180.8838 0001425  93.9435 266.1720 15.08836399128035,6917.891,95.438,540.742,538.771,0.0
52310.0,STARLINK-3688,PAYLOAD,2024-08-05 04:15:32,15.08845136,0.0001399,53.2166,179.6933,101.7552,258.3597,0.00012326,1.675e-05,0.0,0 STARLINK-3688,1 52310U 22041BB  24218.17745903  .00001675  00000-0  12326-3 0  9999,2 52310  53.2166 179.6933 0001399 101.7552 258.3597 15.08845136128075,6917.865,95.437,540.697,538.762,0.0
52310.0,STARLINK-3688,PAYLOAD,2024-08-05 09:01:41,15.08851946,0.0001326,53.2169,178.8022,97.4736,262.6407,0.00016969,2.415e-05,0.0,0 STARLINK-3688,1 52310U 22041BB  24218.37617315  .00002415  00000-0  16969-3 0  9996,2 52310  53.2169 178.8022 0001326  97.4736 262.6407 15.08851946128101,6917.844,95.437,540.626,538.792,0.0
52310.0,STARLINK-3688,PAYLOAD,2024-08-06 04:06:21,15.0882234,0.0001314,53.2158,175.2349,90.1404,269.9739,-0.00014337,-2.568e-05,0.0,0 STARLINK-3688,1 52310U 22041BB  24219.17108700 -.00002568  00000-0 -14337-3 0  9996,2 52310  53.2158 175.2349 0001314  90.1404 269.9739 15.08822340128228,6917.934,95.439,540.708,538.89,0.0
